STARLINK-35779          
1 67047U 25294T   26003.18104691  .00228150  00000+0  38610-2 0  9994
2 67047  43.0003  52.9591 0001755 336.1007  23.9771 15.49999526  4726
STARLINK-35905          
1 67048U 25294U   26003.58335648 -.01024207  00000+0 -26337-1 0  9999
2 67048  43.0005  50.6741 0001204 274.6798 146.6621 15.41429422  3724
STARLINK-35877          
1 67049U 25294V   26003.58335648  .00133046  00000+0  31497-2 0  9993
2 67049  43.0009  50.7640 0001360 266.2763 118.2262 15.40578515  3802
STARLINK-36078          
1 67050U 25294W   26003.50175120  .00104399  00000+0  17599-2 0  9990
2 67050  43.0002  51.0642 0001527 256.4733 103.5957 15.50608008  4773
STARLINK-35706          
1 67051U 25294X   26003.50140808  .00121629  00000+0  20444-2 0  9994
2 67051  43.0002  51.0612 0001328 265.6932  94.3776 15.50615101  4771
STARLINK-35720          
1 67052U 25294Y   26003.56547751  .00126628  00000+0  21257-2 0  9996
2 67052  43.0002  50.6818 0001325 262.1109  97.9601 15.50629292  4783
STARLINK-35739          
1 67053U 25294Z   26003.50072201  .00156688  00000+0  26198-2 0  9992
2 67053  43.0002  51.0559 0001438 270.2642  89.8054 15.50618718  4770
STARLINK-35754          
1 67054U 25294AA  26003.56478812  .00081402  00000+0  13764-2 0  9993
2 67054  43.0009  50.6761 0002386 278.2351  81.8238 15.50629858  4780
STARLINK-35790          
1 67055U 25294AB  26003.50003246  .00193555  00000+0  32163-2 0  9990
2 67055  43.0001  51.0490 0002656 273.9627  86.0930 15.50646640  4778
STARLINK-36143          
1 67056U 25294AC  26002.27516508 -.00184142  00000+0 -32411-2 0  9994
2 67056  43.0002  58.1981 0001273 265.4668  94.6047 15.50285346  4583
STARLINK-36141          
1 67057U 25294AD  26002.59755301  .00045612  00000+0  78063-3 0  9996
2 67057  43.0006  56.3183 0001393 271.7628  88.3073 15.50512095  4630
STARLINK-35767          
1 67058U 25294AE  26003.49974499 -.00053815  00000+0 -92474-3 0  9996
2 67058  43.0001  51.0474 0008393 277.0116  82.9789 15.50321703  4772
