CCSDS_OMM_VERS = 2.0
CREATION_DATE  = 
ORIGINATOR     = 

OBJECT_NAME    = STARLINK-35779
OBJECT_ID      = 2025-294T
CENTER_NAME    = EARTH
REF_FRAME      = TEME
TIME_SYSTEM    = UTC
MEAN_ELEMENT_THEORY = SGP/SGP4

EPOCH          = 2026-01-03T04:20:42.453024
MEAN_MOTION    = 15.49999526
ECCENTRICITY   = .0001755
INCLINATION    = 43.0003
RA_OF_ASC_NODE = 52.9591
ARG_OF_PERICENTER = 336.1007
MEAN_ANOMALY   = 23.9771

EPHEMERIS_TYPE = 0
CLASSIFICATION_TYPE = U
NORAD_CAT_ID   = 67047
ELEMENT_SET_NO = 999
REV_AT_EPOCH   = 472
BSTAR          = .38609782E-2
MEAN_MOTION_DOT = .22815E-2
MEAN_MOTION_DDOT = 0

CCSDS_OMM_VERS = 2.0
CREATION_DATE  = 
ORIGINATOR     = 

OBJECT_NAME    = STARLINK-35905
OBJECT_ID      = 2025-294U
CENTER_NAME    = EARTH
REF_FRAME      = TEME
TIME_SYSTEM    = UTC
MEAN_ELEMENT_THEORY = SGP/SGP4

EPOCH          = 2026-01-03T14:00:01.999872
MEAN_MOTION    = 15.41429422
ECCENTRICITY   = .00012044
INCLINATION    = 43.0005
RA_OF_ASC_NODE = 50.6741
ARG_OF_PERICENTER = 274.6798
MEAN_ANOMALY   = 146.6621

EPHEMERIS_TYPE = 0
CLASSIFICATION_TYPE = U
NORAD_CAT_ID   = 67048
ELEMENT_SET_NO = 999
REV_AT_EPOCH   = 372
BSTAR          = -.26336891E-1
MEAN_MOTION_DOT = -.1024207E-1
MEAN_MOTION_DDOT = 0

CCSDS_OMM_VERS = 2.0
CREATION_DATE  = 
ORIGINATOR     = 

OBJECT_NAME    = STARLINK-35877
OBJECT_ID      = 2025-294V
CENTER_NAME    = EARTH
REF_FRAME      = TEME
TIME_SYSTEM    = UTC
MEAN_ELEMENT_THEORY = SGP/SGP4

EPOCH          = 2026-01-03T14:00:01.999872
MEAN_MOTION    = 15.40578515
ECCENTRICITY   = .00013602
INCLINATION    = 43.0009
RA_OF_ASC_NODE = 50.7640
ARG_OF_PERICENTER = 266.2763
MEAN_ANOMALY   = 118.2262

EPHEMERIS_TYPE = 0
CLASSIFICATION_TYPE = U
NORAD_CAT_ID   = 67049
ELEMENT_SET_NO = 999
REV_AT_EPOCH   = 380
BSTAR          = .31496702E-2
MEAN_MOTION_DOT = .133046E-2
MEAN_MOTION_DDOT = 0

CCSDS_OMM_VERS = 2.0
CREATION_DATE  = 
ORIGINATOR     = 

OBJECT_NAME    = STARLINK-36078
OBJECT_ID      = 2025-294W
CENTER_NAME    = EARTH
REF_FRAME      = TEME
TIME_SYSTEM    = UTC
MEAN_ELEMENT_THEORY = SGP/SGP4

EPOCH          = 2026-01-03T12:02:31.303680
MEAN_MOTION    = 15.50608008
ECCENTRICITY   = .00015272
INCLINATION    = 43.0002
RA_OF_ASC_NODE = 51.0642
ARG_OF_PERICENTER = 256.4733
MEAN_ANOMALY   = 103.5957

EPHEMERIS_TYPE = 0
CLASSIFICATION_TYPE = U
NORAD_CAT_ID   = 67050
ELEMENT_SET_NO = 999
REV_AT_EPOCH   = 477
BSTAR          = .17599013E-2
MEAN_MOTION_DOT = .104399E-2
MEAN_MOTION_DDOT = 0

CCSDS_OMM_VERS = 2.0
CREATION_DATE  = 
ORIGINATOR     = 

OBJECT_NAME    = STARLINK-35706
OBJECT_ID      = 2025-294X
CENTER_NAME    = EARTH
REF_FRAME      = TEME
TIME_SYSTEM    = UTC
MEAN_ELEMENT_THEORY = SGP/SGP4

EPOCH          = 2026-01-03T12:02:01.658112
MEAN_MOTION    = 15.50615101
ECCENTRICITY   = .00013287
INCLINATION    = 43.0002
RA_OF_ASC_NODE = 51.0612
ARG_OF_PERICENTER = 265.6932
MEAN_ANOMALY   = 94.3776

EPHEMERIS_TYPE = 0
CLASSIFICATION_TYPE = U
NORAD_CAT_ID   = 67051
ELEMENT_SET_NO = 999
REV_AT_EPOCH   = 477
BSTAR          = .20443834E-2
MEAN_MOTION_DOT = .121629E-2
MEAN_MOTION_DDOT = 0

CCSDS_OMM_VERS = 2.0
CREATION_DATE  = 
ORIGINATOR     = 

OBJECT_NAME    = STARLINK-35720
OBJECT_ID      = 2025-294Y
CENTER_NAME    = EARTH
REF_FRAME      = TEME
TIME_SYSTEM    = UTC
MEAN_ELEMENT_THEORY = SGP/SGP4

EPOCH          = 2026-01-03T13:34:17.256864
MEAN_MOTION    = 15.50629292
ECCENTRICITY   = .00013255
INCLINATION    = 43.0002
RA_OF_ASC_NODE = 50.6818
ARG_OF_PERICENTER = 262.1109
MEAN_ANOMALY   = 97.9601

EPHEMERIS_TYPE = 0
CLASSIFICATION_TYPE = U
NORAD_CAT_ID   = 67052
ELEMENT_SET_NO = 999
REV_AT_EPOCH   = 478
BSTAR          = .21257384E-2
MEAN_MOTION_DOT = .126628E-2
MEAN_MOTION_DDOT = 0

CCSDS_OMM_VERS = 2.0
CREATION_DATE  = 
ORIGINATOR     = 

OBJECT_NAME    = STARLINK-35739
OBJECT_ID      = 2025-294Z
CENTER_NAME    = EARTH
REF_FRAME      = TEME
TIME_SYSTEM    = UTC
MEAN_ELEMENT_THEORY = SGP/SGP4

EPOCH          = 2026-01-03T12:01:02.381664
MEAN_MOTION    = 15.50618718
ECCENTRICITY   = .00014385
INCLINATION    = 43.0002
RA_OF_ASC_NODE = 51.0559
ARG_OF_PERICENTER = 270.2642
MEAN_ANOMALY   = 89.8054

EPHEMERIS_TYPE = 0
CLASSIFICATION_TYPE = U
NORAD_CAT_ID   = 67053
ELEMENT_SET_NO = 999
REV_AT_EPOCH   = 477
BSTAR          = .26198408E-2
MEAN_MOTION_DOT = .156688E-2
MEAN_MOTION_DDOT = 0

CCSDS_OMM_VERS = 2.0
CREATION_DATE  = 
ORIGINATOR     = 

OBJECT_NAME    = STARLINK-35754
OBJECT_ID      = 2025-294AA
CENTER_NAME    = EARTH
REF_FRAME      = TEME
TIME_SYSTEM    = UTC
MEAN_ELEMENT_THEORY = SGP/SGP4

EPOCH          = 2026-01-03T13:33:17.693568
MEAN_MOTION    = 15.50629858
ECCENTRICITY   = .00023864
INCLINATION    = 43.0009
RA_OF_ASC_NODE = 50.6761
ARG_OF_PERICENTER = 278.2351
MEAN_ANOMALY   = 81.8238

EPHEMERIS_TYPE = 0
CLASSIFICATION_TYPE = U
NORAD_CAT_ID   = 67054
ELEMENT_SET_NO = 999
REV_AT_EPOCH   = 478
BSTAR          = .13764238E-2
MEAN_MOTION_DOT = .81402E-3
MEAN_MOTION_DDOT = 0

CCSDS_OMM_VERS = 2.0
CREATION_DATE  = 
ORIGINATOR     = 

OBJECT_NAME    = STARLINK-35790
OBJECT_ID      = 2025-294AB
CENTER_NAME    = EARTH
REF_FRAME      = TEME
TIME_SYSTEM    = UTC
MEAN_ELEMENT_THEORY = SGP/SGP4

EPOCH          = 2026-01-03T12:00:02.804544
MEAN_MOTION    = 15.50646640
ECCENTRICITY   = .00026561
INCLINATION    = 43.0001
RA_OF_ASC_NODE = 51.0490
ARG_OF_PERICENTER = 273.9627
MEAN_ANOMALY   = 86.0930

EPHEMERIS_TYPE = 0
CLASSIFICATION_TYPE = U
NORAD_CAT_ID   = 67055
ELEMENT_SET_NO = 999
REV_AT_EPOCH   = 477
BSTAR          = .32162955E-2
MEAN_MOTION_DOT = .193555E-2
MEAN_MOTION_DDOT = 0

CCSDS_OMM_VERS = 2.0
CREATION_DATE  = 
ORIGINATOR     = 

OBJECT_NAME    = STARLINK-36143
OBJECT_ID      = 2025-294AC
CENTER_NAME    = EARTH
REF_FRAME      = TEME
TIME_SYSTEM    = UTC
MEAN_ELEMENT_THEORY = SGP/SGP4

EPOCH          = 2026-01-02T06:36:14.262912
MEAN_MOTION    = 15.50285346
ECCENTRICITY   = .0001273
INCLINATION    = 43.0002
RA_OF_ASC_NODE = 58.1981
ARG_OF_PERICENTER = 265.4668
MEAN_ANOMALY   = 94.6047

EPHEMERIS_TYPE = 0
CLASSIFICATION_TYPE = U
NORAD_CAT_ID   = 67056
ELEMENT_SET_NO = 999
REV_AT_EPOCH   = 458
BSTAR          = -.32411E-2
MEAN_MOTION_DOT = -.184142E-2
MEAN_MOTION_DDOT = 0

CCSDS_OMM_VERS = 2.0
CREATION_DATE  = 
ORIGINATOR     = 

OBJECT_NAME    = STARLINK-36141
OBJECT_ID      = 2025-294AD
CENTER_NAME    = EARTH
REF_FRAME      = TEME
TIME_SYSTEM    = UTC
MEAN_ELEMENT_THEORY = SGP/SGP4

EPOCH          = 2026-01-02T14:20:28.580064
MEAN_MOTION    = 15.50512095
ECCENTRICITY   = .0001393
INCLINATION    = 43.0006
RA_OF_ASC_NODE = 56.3183
ARG_OF_PERICENTER = 271.7628
MEAN_ANOMALY   = 88.3073

EPHEMERIS_TYPE = 0
CLASSIFICATION_TYPE = U
NORAD_CAT_ID   = 67057
ELEMENT_SET_NO = 999
REV_AT_EPOCH   = 463
BSTAR          = .7806271E-3
MEAN_MOTION_DOT = .45612E-3
MEAN_MOTION_DDOT = 0

CCSDS_OMM_VERS = 2.0
CREATION_DATE  = 
ORIGINATOR     = 

OBJECT_NAME    = STARLINK-35767
OBJECT_ID      = 2025-294AE
CENTER_NAME    = EARTH
REF_FRAME      = TEME
TIME_SYSTEM    = UTC
MEAN_ELEMENT_THEORY = SGP/SGP4

EPOCH          = 2026-01-03T11:59:37.967136
MEAN_MOTION    = 15.50321703
ECCENTRICITY   = .00083937
INCLINATION    = 43.0001
RA_OF_ASC_NODE = 51.0474
ARG_OF_PERICENTER = 277.0116
MEAN_ANOMALY   = 82.9789

EPHEMERIS_TYPE = 0
CLASSIFICATION_TYPE = U
NORAD_CAT_ID   = 67058
ELEMENT_SET_NO = 999
REV_AT_EPOCH   = 477
BSTAR          = -.92474081E-3
MEAN_MOTION_DOT = -.53815E-3
MEAN_MOTION_DDOT = 0

